[{"OBJECT_NAME":"NUSAT-41 (C PAYNE-G)","OBJECT_ID":"2023-084N","EPOCH":"2026-03-09T21:55:54.837696","MEAN_MOTION":15.29680045,"ECCENTRICITY":0.00062175,"INCLINATION":97.5351,"RA_OF_ASC_NODE":204.1011,"ARG_OF_PERICENTER":322.2064,"MEAN_ANOMALY":37.8738,"EPHEMERIS_TYPE":0,"CLASSIFICATION_TYPE":"U","NORAD_CAT_ID":56944,"ELEMENT_SET_NO":999,"REV_AT_EPOCH":15260,"BSTAR":0.00059912824,"MEAN_MOTION_DOT":0.0001718,"MEAN_MOTION_DDOT":0},{"OBJECT_NAME":"STARLINK-35526","OBJECT_ID":"2025-225X","EPOCH":"2026-03-09T12:36:05.566752","MEAN_MOTION":15.3018248,"ECCENTRICITY":0.00011178,"INCLINATION":53.1599,"RA_OF_ASC_NODE":166.3893,"ARG_OF_PERICENTER":82.3211,"MEAN_ANOMALY":277.7917,"EPHEMERIS_TYPE":0,"CLASSIFICATION_TYPE":"U","NORAD_CAT_ID":65931,"ELEMENT_SET_NO":999,"REV_AT_EPOCH":2438,"BSTAR":0.00062906036,"MEAN_MOTION_DOT":0.00018308,"MEAN_MOTION_DDOT":0}]
